{
  "type": "FeatureCollection",
  "features": [
    {
      "type": "Feature",
      "properties": {
        "norad_id": 66898,
        "name": "STARLINK-36065",
        "group": "last-30-days",
        "lat": -25.154247435942835,
        "lon": -155.5522210484385,
        "alt_km": 406.2317943032331,
        "timestamp": "2025-12-26T19:22:37.607032+00:00",
        "meta_object_name": "STARLINK-36065",
        "meta_object_id": "2025-283W",
        "meta_epoch": "2025-12-26T14:00:04.000032",
        "meta_mean_motion": 15.55984117,
        "meta_eccentricity": 0.00011339,
        "meta_inclination": 53.1596,
        "meta_ra_of_asc_node": 4.9153,
        "meta_arg_of_pericenter": 73.2849,
        "meta_mean_anomaly": 323.6456,
        "meta_ephemeris_type": 0,
        "meta_classification_type": "U",
        "meta_norad_cat_id": 66898,
        "meta_element_set_no": 999,
        "meta_rev_at_epoch": 465,
        "meta_bstar": -0.032274893,
        "meta_mean_motion_dot": -0.02040044,
        "meta_mean_motion_ddot": 0,
        "tle_line1": "1 66898U 25283W   25360.58337963 -.02040044  00000+0 -32275-1 0  9992",
        "tle_line2": "2 66898  53.1596   4.9153 0001133  73.2849 323.6456 15.55984117  4651"
      },
      "geometry": {
        "type": "Point",
        "coordinates": [
          -155.5522210484385,
          -25.154247435942835
        ]
      }
    },
    {
      "type": "Feature",
      "properties": {
        "norad_id": 66899,
        "name": "STARLINK-36064",
        "group": "last-30-days",
        "lat": -26.578828766496827,
        "lon": -154.13959740566952,
        "alt_km": 406.392783559264,
        "timestamp": "2025-12-26T19:22:37.607043+00:00",
        "meta_object_name": "STARLINK-36064",
        "meta_object_id": "2025-283X",
        "meta_epoch": "2025-12-26T14:00:04.000032",
        "meta_mean_motion": 15.559843,
        "meta_eccentricity": 0.00010935,
        "meta_inclination": 53.1596,
        "meta_ra_of_asc_node": 4.9117,
        "meta_arg_of_pericenter": 64.6129,
        "meta_mean_anomaly": 334.2318,
        "meta_ephemeris_type": 0,
        "meta_classification_type": "U",
        "meta_norad_cat_id": 66899,
        "meta_element_set_no": 999,
        "meta_rev_at_epoch": 459,
        "meta_bstar": -0.032224971,
        "meta_mean_motion_dot": -0.02037213,
        "meta_mean_motion_ddot": 0,
        "tle_line1": "1 66899U 25283X   25360.58337963 -.02037213  00000+0 -32225-1 0  9992",
        "tle_line2": "2 66899  53.1596   4.9117 0001093  64.6129 334.2318 15.55984300  4594"
      },
      "geometry": {
        "type": "Point",
        "coordinates": [
          -154.13959740566952,
          -26.578828766496827
        ]
      }
    },
    {
      "type": "Feature",
      "properties": {
        "norad_id": 66900,
        "name": "STARLINK-36074",
        "group": "last-30-days",
        "lat": -27.992325035924992,
        "lon": -152.68863068605876,
        "alt_km": 406.4245398790281,
        "timestamp": "2025-12-26T19:22:37.607053+00:00",
        "meta_object_name": "STARLINK-36074",
        "meta_object_id": "2025-283Y",
        "meta_epoch": "2025-12-26T14:00:04.000032",
        "meta_mean_motion": 15.55985333,
        "meta_eccentricity": 0.00010638,
        "meta_inclination": 53.1597,
        "meta_ra_of_asc_node": 4.9076,
        "meta_arg_of_pericenter": 73.2277,
        "meta_mean_anomaly": 327.5331,
        "meta_ephemeris_type": 0,
        "meta_classification_type": "U",
        "meta_norad_cat_id": 66900,
        "meta_element_set_no": 999,
        "meta_rev_at_epoch": 465,
        "meta_bstar": -0.032233787,
        "meta_mean_motion_dot": -0.02037763,
        "meta_mean_motion_ddot": 0,
        "tle_line1": "1 66900U 25283Y   25360.58337963 -.02037763  00000+0 -32234-1 0  9995",
        "tle_line2": "2 66900  53.1597   4.9076 0001063  73.2277 327.5331 15.55985333  4653"
      },
      "geometry": {
        "type": "Point",
        "coordinates": [
          -152.68863068605876,
          -27.992325035924992
        ]
      }
    },
    {
      "type": "Feature",
      "properties": {
        "norad_id": 66901,
        "name": "STARLINK-36043",
        "group": "last-30-days",
        "lat": -29.389487102185818,
        "lon": -151.20039132017828,
        "alt_km": 406.5373212637496,
        "timestamp": "2025-12-26T19:22:37.607062+00:00",
        "meta_object_name": "STARLINK-36043",
        "meta_object_id": "2025-283Z",
        "meta_epoch": "2025-12-26T14:00:04.000032",
        "meta_mean_motion": 15.55984548,
        "meta_eccentricity": 0.00010317,
        "meta_inclination": 53.1597,
        "meta_ra_of_asc_node": 4.9029,
        "meta_arg_of_pericenter": 70.3609,
        "meta_mean_anomaly": 332.3183,
        "meta_ephemeris_type": 0,
        "meta_classification_type": "U",
        "meta_norad_cat_id": 66901,
        "meta_element_set_no": 999,
        "meta_rev_at_epoch": 465,
        "meta_bstar": -0.032229628,
        "meta_mean_motion_dot": -0.02037455,
        "meta_mean_motion_ddot": 0,
        "tle_line1": "1 66901U 25283Z   25360.58337963 -.02037455  00000+0 -32230-1 0  9990",
        "tle_line2": "2 66901  53.1597   4.9029 0001031  70.3609 332.3183 15.55984548  4650"
      },
      "geometry": {
        "type": "Point",
        "coordinates": [
          -151.20039132017828,
          -29.389487102185818
        ]
      }
    },
    {
      "type": "Feature",
      "properties": {
        "norad_id": 66902,
        "name": "STARLINK-35983",
        "group": "last-30-days",
        "lat": -30.77095692238814,
        "lon": -149.66843685367556,
        "alt_km": 406.6612113918545,
        "timestamp": "2025-12-26T19:22:37.607072+00:00",
        "meta_object_name": "STARLINK-35983",
        "meta_object_id": "2025-283AA",
        "meta_epoch": "2025-12-26T14:00:04.000032",
        "meta_mean_motion": 15.55985191,
        "meta_eccentricity": 0.00010908,
        "meta_inclination": 53.1598,
        "meta_ra_of_asc_node": 4.8991,
        "meta_arg_of_pericenter": 73.533,
        "meta_mean_anomaly": 331.0649,
        "meta_ephemeris_type": 0,
        "meta_classification_type": "U",
        "meta_norad_cat_id": 66902,
        "meta_element_set_no": 999,
        "meta_rev_at_epoch": 465,
        "meta_bstar": -0.032295343,
        "meta_mean_motion_dot": -0.02041246,
        "meta_mean_motion_ddot": 0,
        "tle_line1": "1 66902U 25283AA  25360.58337963 -.02041246  00000+0 -32295-1 0  9995",
        "tle_line2": "2 66902  53.1598   4.8991 0001090  73.5330 331.0649 15.55985191  4658"
      },
      "geometry": {
        "type": "Point",
        "coordinates": [
          -149.66843685367556,
          -30.77095692238814
        ]
      }
    },
    {
      "type": "Feature",
      "properties": {
        "norad_id": 66903,
        "name": "STARLINK-36077",
        "group": "last-30-days",
        "lat": -32.1318951339327,
        "lon": -148.09397754561687,
        "alt_km": 406.7755545258815,
        "timestamp": "2025-12-26T19:22:37.607082+00:00",
        "meta_object_name": "STARLINK-36077",
        "meta_object_id": "2025-283AB",
        "meta_epoch": "2025-12-26T14:00:04.000032",
        "meta_mean_motion": 15.55983661,
        "meta_eccentricity": 0.00011265,
        "meta_inclination": 53.1594,
        "meta_ra_of_asc_node": 4.8951,
        "meta_arg_of_pericenter": 74.6356,
        "meta_mean_anomaly": 331.8794,
        "meta_ephemeris_type": 0,
        "meta_classification_type": "U",
        "meta_norad_cat_id": 66903,
        "meta_element_set_no": 999,
        "meta_rev_at_epoch": 465,
        "meta_bstar": -0.03224117,
        "meta_mean_motion_dot": -0.02038105,
        "meta_mean_motion_ddot": 0,
        "tle_line1": "1 66903U 25283AB  25360.58337963 -.02038105  00000+0 -32241-1 0  9997",
        "tle_line2": "2 66903  53.1594   4.8951 0001126  74.6356 331.8794 15.55983661  4650"
      },
      "geometry": {
        "type": "Point",
        "coordinates": [
          -148.09397754561687,
          -32.1318951339327
        ]
      }
    },
    {
      "type": "Feature",
      "properties": {
        "norad_id": 66904,
        "name": "STARLINK-36059",
        "group": "last-30-days",
        "lat": -33.46939592362446,
        "lon": -146.4769598253728,
        "alt_km": 406.89643025533496,
        "timestamp": "2025-12-26T19:22:37.607091+00:00",
        "meta_object_name": "STARLINK-36059",
        "meta_object_id": "2025-283AC",
        "meta_epoch": "2025-12-26T14:00:04.000032",
        "meta_mean_motion": 15.5597967,
        "meta_eccentricity": 0.00010899,
        "meta_inclination": 53.1589,
        "meta_ra_of_asc_node": 4.8901,
        "meta_arg_of_pericenter": 66.2807,
        "meta_mean_anomaly": 342.1494,
        "meta_ephemeris_type": 0,
        "meta_classification_type": "U",
        "meta_norad_cat_id": 66904,
        "meta_element_set_no": 999,
        "meta_rev_at_epoch": 465,
        "meta_bstar": -0.032064953,
        "meta_mean_motion_dot": -0.02027853,
        "meta_mean_motion_ddot": 0,
        "tle_line1": "1 66904U 25283AC  25360.58337963 -.02027853  00000+0 -32065-1 0  9990",
        "tle_line2": "2 66904  53.1589   4.8901 0001089  66.2807 342.1494 15.55979670  4653"
      },
      "geometry": {
        "type": "Point",
        "coordinates": [
          -146.4769598253728,
          -33.46939592362446
        ]
      }
    }
  ]
}